ONEWEB-0534             
1 55797U 23029B   26201.71414564 -.00000048  00000+0 -15118-3 0  9994
2 55797  87.9174 267.7862 0002051 100.9267 259.2097 13.20769896165571
ONEWEB-0556             
1 55798U 23029C   26201.72089297 -.00000076  00000+0 -21945-3 0  9993
2 55798  87.9167 267.7831 0001453 119.1722 240.9557 13.20771051165577
ONEWEB-0562             
1 55799U 23029D   26201.70741742 -.00000052  00000+0 -16004-3 0  9996
2 55799  87.9168 267.7672 0001215  91.0318 269.0955 13.20772737165573
ONEWEB-0563             
1 55800U 23029E   26201.70237142  .00000087  00000+0  18201-3 0  9990
2 55800  87.9170 267.7986 0002122 104.7234 255.4135 13.20770014165568
ONEWEB-0564             
1 55801U 23029F   26201.69563822  .00000074  00000+0  14984-3 0  9996
2 55801  87.9170 267.7737 0001660  93.1681 266.9643 13.20772587165575
ONEWEB-0638             
1 55802U 23029G   26201.73265321 -.00000093  00000+0 -28527-3 0  9996
2 55802  87.8950 283.0652 0001518 107.8705 252.2591 13.14504816163805
ONEWEB-0639             
1 55803U 23029H   26201.84619279  .00000050  00000+0  92404-4 0  9991
2 55803  87.9183 298.2737 0002786 115.1725 244.9697 13.19724024163343
ONEWEB-0640             
1 55804U 23029J   26201.74217905  .00000093  00000+0  21599-3 0  9994
2 55804  87.8952 283.0541 0001738 119.4167 240.7137 13.14503042163821
ONEWEB-0641             
1 55805U 23029K   26201.76565429 -.00000020  00000+0 -81614-4 0  9991
2 55805  87.9193 298.2818 0002058 104.9589 255.1772 13.19727130163341
ONEWEB-0642             
1 55806U 23029L   26201.83672829  .00000049  00000+0  89773-4 0  9996
2 55806  87.9184 298.2770 0002800 109.0522 251.0914 13.19726306163344
ONEWEB-0643             
1 55807U 23029M   26201.71205116 -.00000209  00000+0 -59713-3 0  9995
2 55807  87.8951 283.0473 0002721 102.5761 257.5673 13.14502466163799
ONEWEB-0644             
1 55808U 23029N   26201.83199361  .00000029  00000+0  41309-4 0  9994
2 55808  87.9183 298.2787 0002373 104.2100 255.9297 13.19725719163341
ONEWEB-0645             
1 55809U 23029P   26201.77828709  .00000017  00000+0  91916-5 0  9990
2 55809  87.9183 298.2862 0002154 113.6766 246.4593 13.19725804163333
ONEWEB-0646             
1 55810U 23029Q   26201.79565153 -.00000213  00000+0 -56349-3 0  9994
2 55810  87.9183 298.2828 0002278 104.1398 255.9988 13.19725082163320
ONEWEB-0648             
1 55811U 23029R   26201.75644735  .00000184  00000+0  46056-3 0  9994
2 55811  87.8963 283.0155 0002563 119.4014 240.7371 13.14503744163807
ONEWEB-0649             
1 55812U 23029S   26201.74510522 -.00000014  00000+0 -66820-4 0  9996
2 55812  87.9183 298.2912 0002150 107.4996 252.6372 13.19723776163357
ONEWEB-0650             
1 55813U 23029T   26201.81618909 -.00000028  00000+0 -10259-3 0  9992
2 55813  87.9184 298.2794 0002577 108.1790 251.9624 13.19724188163338
ONEWEB-0652             
1 55814U 23029U   26201.73742032  .00000027  00000+0  39511-4 0  9999
2 55814  87.8960 283.0259 0001952  94.7561 265.3792 13.14503106163773
ONEWEB-0653             
1 55815U 23029V   26201.72155933 -.00000181  00000+0 -52338-3 0  9991
2 55815  87.8962 283.0274 0001962  99.8859 260.2492 13.14502258163802
ONEWEB-0654             
1 55816U 23029W   26201.71680028 -.00000219  00000+0 -62464-3 0  9992
2 55816  87.8962 283.0241 0001754  92.2596 267.8735 13.14502219163823
ONEWEB-0656             
1 55817U 23029X   26201.68890625  .00000003  00000+0 -23505-4 0  9999
2 55817  87.9181 267.7549 0001786  88.0324 272.1014 13.20770130165574
ONEWEB-0657             
1 55818U 23029Y   26201.81147008  .00000013  00000+0  61787-6 0  9991
2 55818  87.9183 298.2787 0002006  77.2131 282.9226 13.19727382163348
ONEWEB-0658             
1 55819U 23029Z   26201.80671839 -.00000013  00000+0 -65150-4 0  9993
2 55819  87.9193 298.2582 0002389 104.3397 255.8001 13.19726227163351
ONEWEB-0660             
1 55820U 23029AA  26201.77072046  .00000007  00000+0 -16007-4 0  9995
2 55820  87.8972 283.0096 0002003 109.0726 251.0621 13.14501951163817
ONEWEB-0661             
1 55821U 23029AB  26201.72949271 -.00000086  00000+0 -26708-3 0  9990
2 55821  87.8950 283.0571 0001860 107.7565 252.3768 13.14503374163792
ONEWEB-0662             
1 55822U 23029AC  26201.76438567  .00000154  00000+0  37986-3 0  9990
2 55822  87.8955 283.0555 0002010 108.8884 251.2464 13.14502451163846
ONEWEB-0663             
1 55823U 23029AD  26201.72009737 -.00000020  00000+0 -80790-4 0  9996
2 55823  87.9183 267.8195 0002240 108.4241 251.7136 13.20871843165573
ONEWEB-0664             
1 55824U 23029AE  26201.44817439  .00000005  00000+0 -19254-4 0  9991
2 55824  87.9167 267.8510 0001647 105.7229 254.4087 13.20772242165537
ONEWEB-0665             
1 55825U 23029AF  26201.72632362 -.00000130  00000+0 -38612-3 0  9991
2 55825  87.8950 283.0382 0002102 108.1228 252.0130 13.14502792163813
ONEWEB-0666             
1 55826U 23029AG  26201.74444947  .00000083  00000+0  17151-3 0  9994
2 55826  87.9167 267.7819 0002361  81.0405 279.0996 13.20770041165588
