OBJECT_NAME,OBJECT_ID,EPOCH,MEAN_MOTION,ECCENTRICITY,INCLINATION,RA_OF_ASC_NODE,ARG_OF_PERICENTER,MEAN_ANOMALY,EPHEMERIS_TYPE,CLASSIFICATION_TYPE,NORAD_CAT_ID,ELEMENT_SET_NO,REV_AT_EPOCH,BSTAR,MEAN_MOTION_DOT,MEAN_MOTION_DDOT
ONEWEB-0534,2023-029B,2026-07-20T17:08:22.183296,13.20769896,.0002051,87.9174,267.7862,100.9267,259.2097,0,U,55797,999,16557,-.15118E-3,-.48E-6,0
ONEWEB-0556,2023-029C,2026-07-20T17:18:05.152608,13.20771051,.0001453,87.9167,267.7831,119.1722,240.9557,0,U,55798,999,16557,-.21945E-3,-.76E-6,0
ONEWEB-0562,2023-029D,2026-07-20T16:58:40.865088,13.20772737,.0001215,87.9168,267.7672,91.0318,269.0955,0,U,55799,999,16557,-.16004E-3,-.52E-6,0
ONEWEB-0563,2023-029E,2026-07-20T16:51:24.890688,13.20770014,.0002122,87.9170,267.7986,104.7234,255.4135,0,U,55800,999,16556,.18201E-3,.87E-6,0
ONEWEB-0564,2023-029F,2026-07-20T16:41:43.142208,13.20772587,.000166,87.9170,267.7737,93.1681,266.9643,0,U,55801,999,16557,.14984E-3,.74E-6,0
ONEWEB-0638,2023-029G,2026-07-20T17:35:01.237344,13.14504816,.0001518,87.8950,283.0652,107.8705,252.2591,0,U,55802,999,16380,-.28527E-3,-.93E-6,0
ONEWEB-0639,2023-029H,2026-07-20T20:18:31.057056,13.19724024,.0002786,87.9183,298.2737,115.1725,244.9697,0,U,55803,999,16334,.92404E-4,.5E-6,0
ONEWEB-0640,2023-029J,2026-07-20T17:48:44.269920,13.14503042,.0001738,87.8952,283.0541,119.4167,240.7137,0,U,55804,999,16382,.21599E-3,.93E-6,0
ONEWEB-0641,2023-029K,2026-07-20T18:22:32.530656,13.19727130,.0002058,87.9193,298.2818,104.9589,255.1772,0,U,55805,999,16334,-.81614E-4,-.2E-6,0
ONEWEB-0642,2023-029L,2026-07-20T20:04:53.324256,13.19726306,.00028,87.9184,298.2770,109.0522,251.0914,0,U,55806,999,16334,.89773E-4,.49E-6,0
ONEWEB-0643,2023-029M,2026-07-20T17:05:21.220224,13.14502466,.0002721,87.8951,283.0473,102.5761,257.5673,0,U,55807,999,16379,-.59713E-3,-.209E-5,0
ONEWEB-0644,2023-029N,2026-07-20T19:58:04.247904,13.19725719,.0002373,87.9183,298.2787,104.2100,255.9297,0,U,55808,999,16334,.41309E-4,.29E-6,0
ONEWEB-0645,2023-029P,2026-07-20T18:40:44.004576,13.19725804,.0002154,87.9183,298.2862,113.6766,246.4593,0,U,55809,999,16333,.91916E-5,.17E-6,0
ONEWEB-0646,2023-029Q,2026-07-20T19:05:44.292192,13.19725082,.0002278,87.9183,298.2828,104.1398,255.9988,0,U,55810,999,16332,-.56349E-3,-.213E-5,0
ONEWEB-0648,2023-029R,2026-07-20T18:09:17.051040,13.14503744,.0002563,87.8963,283.0155,119.4014,240.7371,0,U,55811,999,16380,.46056E-3,.184E-5,0
ONEWEB-0649,2023-029S,2026-07-20T17:52:57.091008,13.19723776,.000215,87.9183,298.2912,107.4996,252.6372,0,U,55812,999,16335,-.6682E-4,-.14E-6,0
ONEWEB-0650,2023-029T,2026-07-20T19:35:18.737376,13.19724188,.0002577,87.9184,298.2794,108.1790,251.9624,0,U,55813,999,16333,-.10259E-3,-.28E-6,0
ONEWEB-0652,2023-029U,2026-07-20T17:41:53.115648,13.14503106,.0001952,87.8960,283.0259,94.7561,265.3792,0,U,55814,999,16377,.39511E-4,.27E-6,0
ONEWEB-0653,2023-029V,2026-07-20T17:19:02.726112,13.14502258,.0001962,87.8962,283.0274,99.8859,260.2492,0,U,55815,999,16380,-.52338E-3,-.181E-5,0
ONEWEB-0654,2023-029W,2026-07-20T17:12:11.544192,13.14502219,.0001754,87.8962,283.0241,92.2596,267.8735,0,U,55816,999,16382,-.62464E-3,-.219E-5,0
ONEWEB-0656,2023-029X,2026-07-20T16:32:01.500000,13.20770130,.0001786,87.9181,267.7549,88.0324,272.1014,0,U,55817,999,16557,-.23505E-4,.3E-7,0
ONEWEB-0657,2023-029Y,2026-07-20T19:28:31.014912,13.19727382,.0002006,87.9183,298.2787,77.2131,282.9226,0,U,55818,999,16334,.61787E-6,.13E-6,0
ONEWEB-0658,2023-029Z,2026-07-20T19:21:40.468896,13.19726227,.0002389,87.9193,298.2582,104.3397,255.8001,0,U,55819,999,16335,-.6515E-4,-.13E-6,0
ONEWEB-0660,2023-029AA,2026-07-20T18:29:50.247744,13.14501951,.0002003,87.8972,283.0096,109.0726,251.0621,0,U,55820,999,16381,-.16007E-4,.7E-7,0
ONEWEB-0661,2023-029AB,2026-07-20T17:30:28.170144,13.14503374,.000186,87.8950,283.0571,107.7565,252.3768,0,U,55821,999,16379,-.26708E-3,-.86E-6,0
ONEWEB-0662,2023-029AC,2026-07-20T18:20:42.921888,13.14502451,.000201,87.8955,283.0555,108.8884,251.2464,0,U,55822,999,16384,.37986E-3,.154E-5,0
ONEWEB-0663,2023-029AD,2026-07-20T17:16:56.412768,13.20871843,.000224,87.9183,267.8195,108.4241,251.7136,0,U,55823,999,16557,-.8079E-4,-.2E-6,0
ONEWEB-0664,2023-029AE,2026-07-20T10:45:22.267296,13.20772242,.00016479,87.9167,267.8510,105.7229,254.4087,0,U,55824,999,16553,-.19253709E-4,.5E-7,0
ONEWEB-0665,2023-029AF,2026-07-20T17:25:54.360768,13.14502792,.0002102,87.8950,283.0382,108.1228,252.0130,0,U,55825,999,16381,-.38612E-3,-.13E-5,0
ONEWEB-0666,2023-029AG,2026-07-20T17:52:00.434208,13.20770041,.0002361,87.9167,267.7819,81.0405,279.0996,0,U,55826,999,16558,.17151E-3,.83E-6,0
